STARLINK-30610          
1 58082U 23160H   26068.35112743 -.00002157  00000+0 -70759-4 0  9991
2 58082  43.0023  79.8267 0001438 246.9548 113.1152 15.26733570132896
FLOCK 4G-9              
1 62622U 25009P   26068.80935633  .00010752  00000+0  41817-3 0  9991
2 62622  97.4000 150.6115 0003614 328.2191  31.8829 15.26202239 63696
