[{"OBJECT_NAME":"STARLINK-30610","OBJECT_ID":"2023-160H","EPOCH":"2026-03-09T08:25:37.409952","MEAN_MOTION":15.2673357,"ECCENTRICITY":0.0001438,"INCLINATION":43.0023,"RA_OF_ASC_NODE":79.8267,"ARG_OF_PERICENTER":246.9548,"MEAN_ANOMALY":113.1152,"EPHEMERIS_TYPE":0,"CLASSIFICATION_TYPE":"U","NORAD_CAT_ID":58082,"ELEMENT_SET_NO":999,"REV_AT_EPOCH":13289,"BSTAR":-7.0759291e-5,"MEAN_MOTION_DOT":-2.157e-5,"MEAN_MOTION_DDOT":0},{"OBJECT_NAME":"FLOCK 4G-9","OBJECT_ID":"2025-009P","EPOCH":"2026-03-09T19:25:28.387776","MEAN_MOTION":15.26202239,"ECCENTRICITY":0.00036141,"INCLINATION":97.4,"RA_OF_ASC_NODE":150.6115,"ARG_OF_PERICENTER":328.2191,"MEAN_ANOMALY":31.8829,"EPHEMERIS_TYPE":0,"CLASSIFICATION_TYPE":"U","NORAD_CAT_ID":62622,"ELEMENT_SET_NO":999,"REV_AT_EPOCH":6369,"BSTAR":0.00041816911,"MEAN_MOTION_DOT":0.00010752,"MEAN_MOTION_DDOT":0}]
